STARLINK-1575_new
1 16349C 20062AB  21326.14273391  .00004151  00000-0  27816-3 0  3262
2 16349  53.0721 173.0134 0001933  76.3834 227.8147 15.06388199    14
STARLINK-1575_old
1 26349C 20062AB  21325.14778932  .00087126  00000-0  58351-2 0  3251
2 26349  53.0700 177.4915 0001973  74.2920 231.3538 15.06327021    14
